STARLINK-30291          
1 57856U 23141S   26182.11295029  .00010387  00000+0  34587-3 0  9998
2 57856  53.1579 116.5749 0000949  96.6638 263.4471 15.31713636157709
STARLINK-30424          
1 57857U 23141T   26182.04095098 -.00000890  00000+0 -16921-4 0  9998
2 57857  53.1594  91.5756 0001047  97.0841 263.0279 15.31705591158049
STARLINK-30290          
1 57858U 23141U   26182.09521940  .00015807  00000+0  54403-3 0  9992
2 57858  53.1593 117.1698 0000979  72.9230 287.1877 15.30238457157698
STARLINK-30414          
1 57859U 23141V   26182.09205528  .00001243  00000+0  54090-4 0  9996
2 57859  53.1608 117.1507 0001174  85.0369 275.0766 15.30197919157691
STARLINK-30272          
1 57860U 23141W   26182.11761779  .00002301  00000+0  85872-4 0  9994
2 57860  53.1603 116.6023 0001589  97.0460 263.0722 15.31708928157700
STARLINK-30432          
1 57864U 23144A   26181.57587756  .00000255  00000+0  18800-4 0  9994
2 57864  43.0055   7.5422 0001357 269.9408  90.1289 15.27578336154863
STARLINK-30427          
1 57865U 23144B   26181.97204299  .00001893  00000+0  78289-4 0  9993
2 57865  43.0034   5.3479 0001260 275.3070  84.7637 15.27584829154925
STARLINK-30393          
1 57866U 23144C   26181.89509605  .00004234  00000+0  16336-3 0  9990
2 57866  43.0038   5.6312 0001343 280.7275  79.3425 15.27566993154914
STARLINK-30439          
1 57867U 23144D   26181.58357729  .00024376  00000+0  89250-3 0  9999
2 57867  43.0021   7.5918 0001580 257.6825 102.3850 15.27575554154919
STARLINK-30442          
1 57868U 23144E   26181.58743277  .00000792  00000+0  38321-4 0  9997
2 57868  43.0026   7.5770 0001559 255.7846 104.2832 15.27577099154860
STARLINK-30441          
1 57869U 23144F   26181.57201453 -.00003151  00000+0 -10502-3 0  9996
2 57869  43.0038   7.4653 0000906 268.7255  91.3493 15.27580538154867
STARLINK-30460          
1 57870U 23144G   26181.52462462  .00000528  00000+0  28707-4 0  9992
2 57870  43.0028   8.0078 0001230 264.1269  95.9442 15.27576359154907
STARLINK-30444          
1 57871U 23144H   26181.53233126  .00017353  00000+0  63819-3 0  9993
2 57871  42.9933   8.0629 0000475 169.1542 190.9320 15.27601794154612
STARLINK-30446          
1 57872U 23144J   26181.94189672 -.00000938  00000+0 -24559-4 0  9997
2 57872  43.0038 351.4894 0001714 265.1207  94.9449 15.27584623154854
STARLINK-30445          
1 57873U 23144K   26181.59384924  .00003101  00000+0  12212-3 0  9991
2 57873  43.0046   7.6739 0001598 278.8599  81.2072 15.27595569154860
STARLINK-30447          
1 57874U 23144L   26182.13929389 -.00000214  00000+0  17481-5 0  9991
2 57874  43.0004 338.7546 0001070 267.5126  92.5603 15.27574416155285
STARLINK-30434          
1 57875U 23144M   26182.19390225  .00000179  00000+0  16018-4 0  9992
2 57875  43.0042   4.4329 0000977 273.3511  86.7229 15.27583079155006
STARLINK-30429          
1 57876U 23144N   26182.19775737  .00022042  00000+0  80769-3 0  9994
2 57876  43.0005   4.4612 0001727 270.3282  89.7372 15.27597726154990
STARLINK-30284          
1 57877U 23144P   26182.10219150  .00005111  00000+0  19519-3 0  9991
2 57877  43.0032 328.0688 0001417 267.2907  92.7782 15.27571356155401
STARLINK-30433          
1 57878U 23144Q   26181.88738490  .00001644  00000+0  69256-4 0  9990
2 57878  43.0033   5.5739 0001120 271.9749  88.0974 15.27579387154956
STARLINK-30358          
1 57879U 23144R   26181.89121285  .00004187  00000+0  16148-3 0  9996
2 57879  43.0064   5.6008 0001607 264.4430  95.6238 15.27603695154952
STARLINK-30436          
1 57880U 23144S   26181.50534402  .00001161  00000+0  51710-4 0  9999
2 57880  43.0069   7.8641 0001895 275.8554  84.2081 15.27578058154895
STARLINK-30339          
1 57882U 23144U   26181.87981279  .00004044  00000+0  15642-3 0  9995
2 57882  43.0019   6.3683 0001278 271.2011  88.8694 15.27575179154942
STARLINK-30282          
1 57883U 23144V   26181.55788155  .00000489  00000+0  27283-4 0  9993
2 57883  43.0045   7.3991 0001273 264.0760  95.9946 15.27577667154900
STARLINK-30340          
1 57884U 23144W   26181.95790207  .00001171  00000+0  52072-4 0  9992
2 57884  43.0042   5.2320 0001402 260.6914  99.3779 15.27591337154966
STARLINK-30279          
1 57885U 23144X   26181.95405895  .00007343  00000+0  27605-3 0  9999
2 57885  43.0028   5.2124 0001046 284.9542  75.1194 15.27584636154904
YAOGAN-39 02A           
1 57886U 23145A   26182.16255635  .00009855  00000+0  41109-3 0  9995
2 57886  35.0022 112.5757 0001004  66.3593 293.7227 15.22919947155308
YAOGAN-39 02B           
1 57889U 23145D   26182.16114288  .00005341  00000+0  25819-3 0  9992
2 57889  34.9896 136.9896 0003931 194.8737 165.1861 15.17987919155012
YAOGAN-39 02C           
1 57890U 23145E   26182.16511244  .00005217  00000+0  25255-3 0  9993
2 57890  34.9927 137.1125 0006223 193.0010 167.0543 15.17940261154981
STARLINK-30465          
1 57891U 23146A   26181.97994889  .00000044  00000+0  11136-4 0  9990
2 57891  43.0034  34.3093 0001085 260.5899  99.4830 15.27577418154382
