OBJECT_NAME,OBJECT_ID,EPOCH,MEAN_MOTION,ECCENTRICITY,INCLINATION,RA_OF_ASC_NODE,ARG_OF_PERICENTER,MEAN_ANOMALY,EPHEMERIS_TYPE,CLASSIFICATION_TYPE,NORAD_CAT_ID,ELEMENT_SET_NO,REV_AT_EPOCH,BSTAR,MEAN_MOTION_DOT,MEAN_MOTION_DDOT
STARLINK-30291,2023-141S,2026-07-01T02:42:38.905056,15.31713636,.0000949,53.1579,116.5749,96.6638,263.4471,0,U,57856,999,15770,.34587E-3,.10387E-3,0
STARLINK-30424,2023-141T,2026-07-01T00:58:58.164672,15.31705591,.0001047,53.1594,91.5756,97.0841,263.0279,0,U,57857,999,15804,-.16921E-4,-.89E-5,0
STARLINK-30290,2023-141U,2026-07-01T02:17:06.956160,15.30238457,.0000979,53.1593,117.1698,72.9230,287.1877,0,U,57858,999,15769,.54403E-3,.15807E-3,0
STARLINK-30414,2023-141V,2026-07-01T02:12:33.576192,15.30197919,.0001174,53.1608,117.1507,85.0369,275.0766,0,U,57859,999,15769,.5409E-4,.1243E-4,0
STARLINK-30272,2023-141W,2026-07-01T02:49:22.177056,15.31708928,.0001589,53.1603,116.6023,97.0460,263.0722,0,U,57860,999,15770,.85872E-4,.2301E-4,0
STARLINK-30432,2023-144A,2026-06-30T13:49:15.821184,15.27578336,.00013575,43.0055,7.5422,269.9408,90.1289,0,U,57864,999,15486,.18800391E-4,.255E-5,0
STARLINK-30427,2023-144B,2026-06-30T23:19:44.514336,15.27584829,.000126,43.0034,5.3479,275.3070,84.7637,0,U,57865,999,15492,.78289E-4,.1893E-4,0
STARLINK-30393,2023-144C,2026-06-30T21:28:56.298720,15.27566993,.0001343,43.0038,5.6312,280.7275,79.3425,0,U,57866,999,15491,.16336E-3,.4234E-4,0
STARLINK-30439,2023-144D,2026-06-30T14:00:21.077856,15.27575554,.00015801,43.0021,7.5918,257.6825,102.3850,0,U,57867,999,15491,.89250489E-3,.24376E-3,0
STARLINK-30442,2023-144E,2026-06-30T14:05:54.191328,15.27577099,.00015596,43.0026,7.5770,255.7846,104.2832,0,U,57868,999,15486,.38321394E-4,.792E-5,0
STARLINK-30441,2023-144F,2026-06-30T13:43:42.055392,15.27580538,.00009064,43.0038,7.4653,268.7255,91.3493,0,U,57869,999,15486,-.10502427E-3,-.3151E-4,0
STARLINK-30460,2023-144G,2026-06-30T12:35:27.567168,15.27576359,.00012308,43.0028,8.0078,264.1269,95.9442,0,U,57870,999,15490,.28706749E-4,.528E-5,0
STARLINK-30444,2023-144H,2026-06-30T12:46:33.420864,15.27601794,.00004757,42.9933,8.0629,169.1542,190.9320,0,U,57871,999,15461,.63819107E-3,.17353E-3,0
STARLINK-30446,2023-144J,2026-06-30T22:36:19.876608,15.27584623,.0001714,43.0038,351.4894,265.1207,94.9449,0,U,57872,999,15485,-.24559E-4,-.938E-5,0
STARLINK-30445,2023-144K,2026-06-30T14:15:08.574336,15.27595569,.00015986,43.0046,7.6739,278.8599,81.2072,0,U,57873,999,15486,.12211675E-3,.3101E-4,0
STARLINK-30447,2023-144L,2026-07-01T03:20:34.992096,15.27574416,.000107,43.0004,338.7546,267.5126,92.5603,0,U,57874,999,15528,.17481E-5,-.214E-5,0
STARLINK-30434,2023-144M,2026-07-01T04:39:13.154400,15.27583079,.0000977,43.0042,4.4329,273.3511,86.7229,0,U,57875,999,15500,.16018E-4,.179E-5,0
STARLINK-30429,2023-144N,2026-07-01T04:44:46.236768,15.27597726,.0001727,43.0005,4.4612,270.3282,89.7372,0,U,57876,999,15499,.80769E-3,.22042E-3,0
STARLINK-30284,2023-144P,2026-07-01T02:27:09.345600,15.27571356,.0001417,43.0032,328.0688,267.2907,92.7782,0,U,57877,999,15540,.19519E-3,.5111E-4,0
STARLINK-30433,2023-144Q,2026-06-30T21:17:50.055360,15.27579387,.000112,43.0033,5.5739,271.9749,88.0974,0,U,57878,999,15495,.69256E-4,.1644E-4,0
STARLINK-30358,2023-144R,2026-06-30T21:23:20.790240,15.27603695,.0001607,43.0064,5.6008,264.4430,95.6238,0,U,57879,999,15495,.16148E-3,.4187E-4,0
STARLINK-30436,2023-144S,2026-06-30T12:07:41.723328,15.27578058,.0001895,43.0069,7.8641,275.8554,84.2081,0,U,57880,999,15489,.5171044E-4,.1161E-4,0
STARLINK-30339,2023-144U,2026-06-30T21:06:55.825056,15.27575179,.0001278,43.0019,6.3683,271.2011,88.8694,0,U,57882,999,15494,.15642E-3,.4044E-4,0
STARLINK-30282,2023-144V,2026-06-30T13:23:20.965920,15.27577667,.00012732,43.0045,7.3991,264.0760,95.9946,0,U,57883,999,15490,.27282542E-4,.489E-5,0
STARLINK-30340,2023-144W,2026-06-30T22:59:22.738848,15.27591337,.0001402,43.0042,5.2320,260.6914,99.3779,0,U,57884,999,15496,.52072E-4,.1171E-4,0
STARLINK-30279,2023-144X,2026-06-30T22:53:50.693280,15.27584636,.0001046,43.0028,5.2124,284.9542,75.1194,0,U,57885,999,15490,.27605E-3,.7343E-4,0
YAOGAN-39 02A,2023-145A,2026-07-01T03:54:04.868640,15.22919947,.0001004,35.0022,112.5757,66.3593,293.7227,0,U,57886,999,15530,.41109E-3,.9855E-4,0
YAOGAN-39 02B,2023-145D,2026-07-01T03:52:02.744832,15.17987919,.0003931,34.9896,136.9896,194.8737,165.1861,0,U,57889,999,15501,.25819E-3,.5341E-4,0
YAOGAN-39 02C,2023-145E,2026-07-01T03:57:45.714816,15.17940261,.0006223,34.9927,137.1125,193.0010,167.0543,0,U,57890,999,15498,.25255E-3,.5217E-4,0
STARLINK-30465,2023-146A,2026-06-30T23:31:07.584096,15.27577418,.0001085,43.0034,34.3093,260.5899,99.4830,0,U,57891,999,15438,.11136E-4,.44E-6,0
